start=new Date('2021-11-15T00:00:00.000Z').valueOf();
sats=[{"PERIOD":"95.592","LAUNCH_DATE":"2021-03-14","ARG_OF_PERICENTER":"90.2959","REV_AT_EPOCH":"3883","APOAPSIS":"548.274","TLE_LINE2":"2 47909  53.0557 145.8411 0001556  90.2959 269.8209 15.06405565 38836","SITE":"AFETR","MEAN_MOTION_DDOT":"0.0000000000000","REF_FRAME":"TEME","MEAN_MOTION":"15.06405565","OBJECT_ID":"2021-021BB","RCS_SIZE":"MEDIUM","EPHEMERIS_TYPE":"0","CENTER_NAME":"EARTH","GP_ID":"189774024","MEAN_MOTION_DOT":"0.00000322","RA_OF_ASC_NODE":"145.8411","SEMIMAJOR_AXIS":"6925.332","NORAD_CAT_ID":"47909","CLASSIFICATION_TYPE":"U","BSTAR":"0.00004050300000","TIME_SYSTEM":"UTC","OBJECT_TYPE":"PAYLOAD","ECCENTRICITY":"0.00015560","TLE_LINE1":"1 47909U 21021BB  21318.84932729  .00000322  00000-0  40503-4 0  9997","MEAN_ANOMALY":"269.8209","INCLINATION":"53.0557","OBJECT_NAME":"STARLINK-2369","ELEMENT_SET_NO":"999","DECAY_DATE":null,"FILE":"3215179","MEAN_ELEMENT_THEORY":"SGP4","COUNTRY_CODE":"US","PERIAPSIS":"546.119","EPOCH":"2021-11-14T20:23:01.877856"},{"SEMIMAJOR_AXIS":"6925.350","CENTER_NAME":"EARTH","GP_ID":"189774776","RA_OF_ASC_NODE":"145.6668","MEAN_MOTION_DOT":"-0.00001235","MEAN_MOTION":"15.06399541","OBJECT_ID":"2021-021BC","RCS_SIZE":"LARGE","EPHEMERIS_TYPE":"0","MEAN_MOTION_DDOT":"0.0000000000000","REF_FRAME":"TEME","SITE":"AFETR","TLE_LINE2":"2 47910  53.0544 145.6668 0001738  70.2310 289.8866 15.06399541 38698","APOAPSIS":"548.419","ARG_OF_PERICENTER":"70.2310","REV_AT_EPOCH":"3869","PERIOD":"95.592","LAUNCH_DATE":"2021-03-14","PERIAPSIS":"546.011","EPOCH":"2021-11-14T21:14:46.289472","DECAY_DATE":null,"FILE":"3215179","MEAN_ELEMENT_THEORY":"SGP4","COUNTRY_CODE":"US","ELEMENT_SET_NO":"999","MEAN_ANOMALY":"289.8866","INCLINATION":"53.0544","OBJECT_NAME":"STARLINK-2370","TLE_LINE1":"1 47910U 21021BC  21318.88525798 -.00001235  00000-0 -63997-4 0  9995","TIME_SYSTEM":"UTC","OBJECT_TYPE":"PAYLOAD","ECCENTRICITY":"0.00017380","NORAD_CAT_ID":"47910","BSTAR":"-0.00006399700000","CLASSIFICATION_TYPE":"U"},{"TIME_SYSTEM":"UTC","OBJECT_TYPE":"PAYLOAD","ECCENTRICITY":"0.00019610","NORAD_CAT_ID":"47911","CLASSIFICATION_TYPE":"U","BSTAR":"0.00006602300000","INCLINATION":"53.0555","MEAN_ANOMALY":"290.3151","OBJECT_NAME":"STARLINK-2371","TLE_LINE1":"1 47911U 21021BD  21318.87833008  .00000702  00000-0  66023-4 0  9990","DECAY_DATE":null,"FILE":"3215179","MEAN_ELEMENT_THEORY":"SGP4","COUNTRY_CODE":"US","ELEMENT_SET_NO":"999","PERIAPSIS":"545.875","EPOCH":"2021-11-14T21:04:47.718912","ARG_OF_PERICENTER":"69.8049","REV_AT_EPOCH":"3831","PERIOD":"95.593","LAUNCH_DATE":"2021-03-14","SITE":"AFETR","TLE_LINE2":"2 47911  53.0555 160.7147 0001961  69.8049 290.3151 15.06393502 38316","APOAPSIS":"548.592","MEAN_MOTION":"15.06393502","OBJECT_ID":"2021-021BD","RCS_SIZE":"LARGE","EPHEMERIS_TYPE":"0","MEAN_MOTION_DDOT":"0.0000000000000","REF_FRAME":"TEME","SEMIMAJOR_AXIS":"6925.368","CENTER_NAME":"EARTH","GP_ID":"189774527","RA_OF_ASC_NODE":"160.7147","MEAN_MOTION_DOT":"0.00000702"},{"OBJECT_ID":"2021-021BE","MEAN_MOTION":"15.06387536","RCS_SIZE":"LARGE","EPHEMERIS_TYPE":"0","MEAN_MOTION_DDOT":"0.0000000000000","REF_FRAME":"TEME","SEMIMAJOR_AXIS":"6925.387","CENTER_NAME":"EARTH","GP_ID":"189773275","MEAN_MOTION_DOT":"-0.00001488","RA_OF_ASC_NODE":"145.7031","ARG_OF_PERICENTER":"79.5923","REV_AT_EPOCH":"3852","PERIOD":"95.593","LAUNCH_DATE":"2021-03-14","SITE":"AFETR","APOAPSIS":"548.251","TLE_LINE2":"2 47912  53.0528 145.7031 0001443  79.5923 280.5228 15.06387536 38525","DECAY_DATE":null,"FILE":"3215179","MEAN_ELEMENT_THEORY":"SGP4","COUNTRY_CODE":"US","ELEMENT_SET_NO":"999","PERIAPSIS":"546.252","EPOCH":"2021-11-14T21:05:30.368544","TIME_SYSTEM":"UTC","OBJECT_TYPE":"PAYLOAD","ECCENTRICITY":"0.00014430","NORAD_CAT_ID":"47912","BSTAR":"-0.00008101500000","CLASSIFICATION_TYPE":"U","INCLINATION":"53.0528","MEAN_ANOMALY":"280.5228","OBJECT_NAME":"STARLINK-2372","TLE_LINE1":"1 47912U 21021BE  21318.87882371 -.00001488  00000-0 -81015-4 0  9990"},{"DECAY_DATE":null,"FILE":"3215179","MEAN_ELEMENT_THEORY":"SGP4","COUNTRY_CODE":"US","ELEMENT_SET_NO":"999","PERIAPSIS":"546.101","EPOCH":"2021-11-14T20:09:44.579520","TIME_SYSTEM":"UTC","ECCENTRICITY":"0.00016380","OBJECT_TYPE":"PAYLOAD","NORAD_CAT_ID":"47913","BSTAR":"-0.00006359200000","CLASSIFICATION_TYPE":"U","INCLINATION":"53.0562","MEAN_ANOMALY":"278.6436","OBJECT_NAME":"STARLINK-2374","TLE_LINE1":"1 47913U 21021BF  21318.84009930 -.00001228  00000-0 -63592-4 0  9992","OBJECT_ID":"2021-021BF","MEAN_MOTION":"15.06392996","RCS_SIZE":"LARGE","EPHEMERIS_TYPE":"0","MEAN_MOTION_DDOT":"0.0000000000000","REF_FRAME":"TEME","SEMIMAJOR_AXIS":"6925.370","CENTER_NAME":"EARTH","GP_ID":"189773525","MEAN_MOTION_DOT":"-0.00001228","RA_OF_ASC_NODE":"155.8859","ARG_OF_PERICENTER":"81.4739","REV_AT_EPOCH":"3854","PERIOD":"95.593","LAUNCH_DATE":"2021-03-14","SITE":"AFETR","TLE_LINE2":"2 47913  53.0562 155.8859 0001638  81.4739 278.6436 15.06392996 38544","APOAPSIS":"548.369"},{"CENTER_NAME":"EARTH","GP_ID":"189774277","RA_OF_ASC_NODE":"155.5970","MEAN_MOTION_DOT":"0.00000517","SEMIMAJOR_AXIS":"6925.372","MEAN_MOTION_DDOT":"0.0000000000000","REF_FRAME":"TEME","MEAN_MOTION":"15.06392397","OBJECT_ID":"2021-021BG","RCS_SIZE":"LARGE","EPHEMERIS_TYPE":"0","TLE_LINE2":"2 47914  53.0559 155.5970 0001599  88.6486 271.4686 15.06392397 38549","APOAPSIS":"548.344","SITE":"AFETR","PERIOD":"95.593","LAUNCH_DATE":"2021-03-14","ARG_OF_PERICENTER":"88.6486","REV_AT_EPOCH":"3854","PERIAPSIS":"546.129","EPOCH":"2021-11-14T21:41:21.045120","ELEMENT_SET_NO":"999","DECAY_DATE":null,"FILE":"3215179","COUNTRY_CODE":"US","MEAN_ELEMENT_THEORY":"SGP4","TLE_LINE1":"1 47914U 21021BG  21318.90371580  .00000517  00000-0  53632-4 0  9995","INCLINATION":"53.0559","MEAN_ANOMALY":"271.4686","OBJECT_NAME":"STARLINK-2375","NORAD_CAT_ID":"47914","BSTAR":"0.00005363200000","CLASSIFICATION_TYPE":"U","TIME_SYSTEM":"UTC","OBJECT_TYPE":"PAYLOAD","ECCENTRICITY":"0.00015990"},{"PERIAPSIS":"546.019","EPOCH":"2021-11-14T21:39:21.047616","DECAY_DATE":null,"FILE":"3215179","MEAN_ELEMENT_THEORY":"SGP4","COUNTRY_CODE":"US","ELEMENT_SET_NO":"999","MEAN_ANOMALY":"284.5605","INCLINATION":"53.0588","OBJECT_NAME":"STARLINK-2376","TLE_LINE1":"1 47915U 21021BH  21318.90232694 -.00001209  00000-0 -62292-4 0  9991","TIME_SYSTEM":"UTC","OBJECT_TYPE":"PAYLOAD","ECCENTRICITY":"0.00017550","NORAD_CAT_ID":"47915","CLASSIFICATION_TYPE":"U","BSTAR":"-0.00006229200000","SEMIMAJOR_AXIS":"6925.369","CENTER_NAME":"EARTH","GP_ID":"189775027","RA_OF_ASC_NODE":"150.5639","MEAN_MOTION_DOT":"-0.00001209","OBJECT_ID":"2021-021BH","MEAN_MOTION":"15.06393213","RCS_SIZE":"MEDIUM","EPHEMERIS_TYPE":"0","MEAN_MOTION_DDOT":"0.0000000000000","REF_FRAME":"TEME","SITE":"AFETR","APOAPSIS":"548.450","TLE_LINE2":"2 47915  53.0588 150.5639 0001755  75.5579 284.5605 15.06393213 38624","ARG_OF_PERICENTER":"75.5579","REV_AT_EPOCH":"3862","PERIOD":"95.593","LAUNCH_DATE":"2021-03-14"},{"TLE_LINE1":"1 47916U 21021BJ  21318.87605829  .00000480  00000-0  51114-4 0  9991","OBJECT_NAME":"STARLINK-2378","INCLINATION":"53.0545","MEAN_ANOMALY":"275.7811","CLASSIFICATION_TYPE":"U","BSTAR":"0.00005111400000","NORAD_CAT_ID":"47916","OBJECT_TYPE":"PAYLOAD","ECCENTRICITY":"0.00016530","TIME_SYSTEM":"UTC","EPOCH":"2021-11-14T21:01:31.436256","PERIAPSIS":"546.083","ELEMENT_SET_NO":"999","MEAN_ELEMENT_THEORY":"SGP4","COUNTRY_CODE":"US","DECAY_DATE":null,"FILE":"3215179","APOAPSIS":"548.372","TLE_LINE2":"2 47916  53.0545 135.7082 0001653  84.3366 275.7811 15.06395393 38806","SITE":"AFETR","LAUNCH_DATE":"2021-03-14","PERIOD":"95.592","REV_AT_EPOCH":"3880","ARG_OF_PERICENTER":"84.3366","GP_ID":"189773775","RA_OF_ASC_NODE":"135.7082","MEAN_MOTION_DOT":"0.00000480","CENTER_NAME":"EARTH","SEMIMAJOR_AXIS":"6925.363","MEAN_MOTION_DDOT":"0.0000000000000","REF_FRAME":"TEME","EPHEMERIS_TYPE":"0","OBJECT_ID":"2021-021BJ","MEAN_MOTION":"15.06395393","RCS_SIZE":"MEDIUM"},{"PERIAPSIS":"546.020","EPOCH":"2021-11-14T21:10:49.288224","DECAY_DATE":null,"FILE":"3215179","MEAN_ELEMENT_THEORY":"SGP4","COUNTRY_CODE":"US","ELEMENT_SET_NO":"999","MEAN_ANOMALY":"292.6631","INCLINATION":"53.0564","OBJECT_NAME":"STARLINK-2397","TLE_LINE1":"1 47917U 21021BK  21318.88251491 -.00001419  00000-0 -76335-4 0  9992","TIME_SYSTEM":"UTC","OBJECT_TYPE":"PAYLOAD","ECCENTRICITY":"0.00017040","NORAD_CAT_ID":"47917","CLASSIFICATION_TYPE":"U","BSTAR":"-0.00007633500000","SEMIMAJOR_AXIS":"6925.335","CENTER_NAME":"EARTH","GP_ID":"189774025","RA_OF_ASC_NODE":"145.6986","MEAN_MOTION_DOT":"-0.00001419","OBJECT_ID":"2021-021BK","MEAN_MOTION":"15.06404365","RCS_SIZE":"LARGE","EPHEMERIS_TYPE":"0","MEAN_MOTION_DDOT":"0.0000000000000","REF_FRAME":"TEME","SITE":"AFETR","APOAPSIS":"548.380","TLE_LINE2":"2 47917  53.0564 145.6986 0001704  67.4538 292.6631 15.06404365 38652","ARG_OF_PERICENTER":"67.4538","REV_AT_EPOCH":"3865","PERIOD":"95.592","LAUNCH_DATE":"2021-03-14"},{"SEMIMAJOR_AXIS":"6925.361","CENTER_NAME":"EARTH","GP_ID":"189774777","MEAN_MOTION_DOT":"0.00000665","RA_OF_ASC_NODE":"145.6542","MEAN_MOTION":"15.06396010","OBJECT_ID":"2021-021BL","RCS_SIZE":"LARGE","EPHEMERIS_TYPE":"0","MEAN_MOTION_DDOT":"0.0000000000000","REF_FRAME":"TEME","SITE":"AFETR","TLE_LINE2":"2 47918  53.0551 145.6542 0001657  77.5116 282.6058 15.06396010 38680","APOAPSIS":"548.373","ARG_OF_PERICENTER":"77.5116","REV_AT_EPOCH":"3868","PERIOD":"95.592","LAUNCH_DATE":"2021-03-14","PERIAPSIS":"546.078","EPOCH":"2021-11-14T21:21:25.415136","DECAY_DATE":null,"FILE":"3215179","COUNTRY_CODE":"US","MEAN_ELEMENT_THEORY":"SGP4","ELEMENT_SET_NO":"999","INCLINATION":"53.0551","MEAN_ANOMALY":"282.6058","OBJECT_NAME":"STARLINK-2398","TLE_LINE1":"1 47918U 21021BL  21318.88987749  .00000665  00000-0  63529-4 0  9996","TIME_SYSTEM":"UTC","ECCENTRICITY":"0.00016570","OBJECT_TYPE":"PAYLOAD","NORAD_CAT_ID":"47918","CLASSIFICATION_TYPE":"U","BSTAR":"0.00006352900000"}];
